start=new Date('2023-06-08T00:00:00.000Z').valueOf();
sats=[{"EPOCH":"2023-06-07T16:55:38.044416","ECCENTRICITY":"0.00033410","GP_ID":"233434851","REV_AT_EPOCH":"1535","PERIAPSIS":"569.732","MEAN_ANOMALY":"88.1493","INCLINATION":"70.0001","BSTAR":"0.00006309800000","MEAN_MOTION_DOT":"0.00000660","APOAPSIS":"574.376","MEAN_MOTION":"14.98331396","RCS_SIZE":"LARGE","FILE":"3927436","MEAN_ELEMENT_THEORY":"SGP4","OBJECT_ID":"2023-028N","DECAY_DATE":null,"REF_FRAME":"TEME","SITE":"AFWTR","TIME_SYSTEM":"UTC","EPHEMERIS_TYPE":"0","OBJECT_TYPE":"PAYLOAD","COUNTRY_CODE":"US","TLE_LINE1":"1 55753U 23028N   23158.70530144  .00000660  00000-0  63098-4 0  9995","OBJECT_NAME":"STARLINK-5617","NORAD_CAT_ID":"55753","LAUNCH_DATE":"2023-03-03","ARG_OF_PERICENTER":"271.9284","TLE_LINE2":"2 55753  70.0001 260.8924 0003341 271.9284  88.1493 14.98331396 15354","MEAN_MOTION_DDOT":"0.0000000000000","SEMIMAJOR_AXIS":"6950.189","CLASSIFICATION_TYPE":"U","PERIOD":"96.107","ELEMENT_SET_NO":"999","RA_OF_ASC_NODE":"260.8924","CENTER_NAME":"EARTH"},{"GP_ID":"233435603","ECCENTRICITY":"0.00033570","EPOCH":"2023-06-07T16:37:36.122880","BSTAR":"-0.00002477900000","REV_AT_EPOCH":"1535","PERIAPSIS":"569.718","INCLINATION":"70.0006","MEAN_ANOMALY":"93.7943","FILE":"3927436","RCS_SIZE":"LARGE","MEAN_MOTION":"14.98332286","MEAN_MOTION_DOT":"-0.00000389","APOAPSIS":"574.384","DECAY_DATE":null,"OBJECT_ID":"2023-028P","MEAN_ELEMENT_THEORY":"SGP4","EPHEMERIS_TYPE":"0","OBJECT_TYPE":"PAYLOAD","SITE":"AFWTR","TIME_SYSTEM":"UTC","REF_FRAME":"TEME","ARG_OF_PERICENTER":"266.2832","LAUNCH_DATE":"2023-03-03","TLE_LINE2":"2 55754  70.0006 260.8489 0003357 266.2832  93.7943 14.98332286 15350","SEMIMAJOR_AXIS":"6950.186","MEAN_MOTION_DDOT":"0.0000000000000","CLASSIFICATION_TYPE":"U","OBJECT_NAME":"STARLINK-5612","NORAD_CAT_ID":"55754","TLE_LINE1":"1 55754U 23028P   23158.69277920 -.00000389  00000-0 -24779-4 0  9997","COUNTRY_CODE":"US","CENTER_NAME":"EARTH","ELEMENT_SET_NO":"999","PERIOD":"96.107","RA_OF_ASC_NODE":"260.8489"},{"PERIOD":"96.107","ELEMENT_SET_NO":"999","RA_OF_ASC_NODE":"261.6346","CENTER_NAME":"EARTH","REF_FRAME":"TEME","TIME_SYSTEM":"UTC","SITE":"AFWTR","OBJECT_TYPE":"PAYLOAD","EPHEMERIS_TYPE":"0","COUNTRY_CODE":"US","TLE_LINE1":"1 55755U 23028Q   23158.34662167 -.00000570  00000-0 -39937-4 0  9995","NORAD_CAT_ID":"55755","OBJECT_NAME":"STARLINK-5619","ARG_OF_PERICENTER":"269.0298","LAUNCH_DATE":"2023-03-03","TLE_LINE2":"2 55755  69.9999 261.6346 0003328 269.0298  91.0479 14.98331977 15301","SEMIMAJOR_AXIS":"6950.187","MEAN_MOTION_DDOT":"0.0000000000000","CLASSIFICATION_TYPE":"U","MEAN_MOTION_DOT":"-0.00000570","APOAPSIS":"574.365","MEAN_MOTION":"14.98331977","FILE":"3927174","RCS_SIZE":"LARGE","MEAN_ELEMENT_THEORY":"SGP4","OBJECT_ID":"2023-028Q","DECAY_DATE":null,"EPOCH":"2023-06-07T08:19:08.112288","ECCENTRICITY":"0.00033280","GP_ID":"233401638","REV_AT_EPOCH":"1530","MEAN_ANOMALY":"91.0479","PERIAPSIS":"569.739","INCLINATION":"69.9999","BSTAR":"-0.00003993700000"},{"ECCENTRICITY":"0.00029740","GP_ID":"233407517","EPOCH":"2023-06-07T08:12:53.207136","BSTAR":"-0.00006203200000","PERIAPSIS":"569.983","MEAN_ANOMALY":"95.0359","INCLINATION":"70.0007","REV_AT_EPOCH":"1530","MEAN_MOTION":"14.98332419","RCS_SIZE":"LARGE","FILE":"3927339","APOAPSIS":"574.117","MEAN_MOTION_DOT":"-0.00000833","DECAY_DATE":null,"MEAN_ELEMENT_THEORY":"SGP4","OBJECT_ID":"2023-028R","SITE":"AFWTR","TIME_SYSTEM":"UTC","EPHEMERIS_TYPE":"0","OBJECT_TYPE":"PAYLOAD","REF_FRAME":"TEME","NORAD_CAT_ID":"55756","OBJECT_NAME":"STARLINK-5614","SEMIMAJOR_AXIS":"6950.185","TLE_LINE2":"2 55756  70.0007 261.6292 0002974 265.0461  95.0359 14.98332419 15302","MEAN_MOTION_DDOT":"0.0000000000000","CLASSIFICATION_TYPE":"U","ARG_OF_PERICENTER":"265.0461","LAUNCH_DATE":"2023-03-03","COUNTRY_CODE":"US","TLE_LINE1":"1 55756U 23028R   23158.34228249 -.00000833  00000-0 -62032-4 0  9999","CENTER_NAME":"EARTH","RA_OF_ASC_NODE":"261.6292","ELEMENT_SET_NO":"999","PERIOD":"96.107"},{"EPOCH":"2023-06-07T16:43:36.679584","GP_ID":"233434352","ECCENTRICITY":"0.00034090","REV_AT_EPOCH":"1535","INCLINATION":"70.0004","PERIAPSIS":"569.683","MEAN_ANOMALY":"90.6194","BSTAR":"0.00001029400000","MEAN_MOTION_DOT":"0.00000030","APOAPSIS":"574.421","RCS_SIZE":"LARGE","FILE":"3927436","MEAN_MOTION":"14.98331847","OBJECT_ID":"2023-028S","MEAN_ELEMENT_THEORY":"SGP4","DECAY_DATE":null,"REF_FRAME":"TEME","OBJECT_TYPE":"PAYLOAD","EPHEMERIS_TYPE":"0","SITE":"AFWTR","TIME_SYSTEM":"UTC","TLE_LINE1":"1 55757U 23028S   23158.69695231  .00000030  00000-0  10294-4 0  9997","COUNTRY_CODE":"US","LAUNCH_DATE":"2023-03-03","ARG_OF_PERICENTER":"269.4575","TLE_LINE2":"2 55757  70.0004 260.8622 0003409 269.4575  90.6194 14.98331847 15353","CLASSIFICATION_TYPE":"U","SEMIMAJOR_AXIS":"6950.187","MEAN_MOTION_DDOT":"0.0000000000000","OBJECT_NAME":"STARLINK-5544","NORAD_CAT_ID":"55757","ELEMENT_SET_NO":"999","PERIOD":"96.107","RA_OF_ASC_NODE":"260.8622","CENTER_NAME":"EARTH"},{"MEAN_MOTION":"14.98330830","RCS_SIZE":"LARGE","FILE":"3927436","APOAPSIS":"574.368","MEAN_MOTION_DOT":"-0.00000300","DECAY_DATE":null,"MEAN_ELEMENT_THEORY":"SGP4","OBJECT_ID":"2023-028T","ECCENTRICITY":"0.00033270","GP_ID":"233435104","EPOCH":"2023-06-07T16:31:35.502240","BSTAR":"-0.00001735700000","MEAN_ANOMALY":"89.3050","PERIAPSIS":"569.743","INCLINATION":"70.0007","REV_AT_EPOCH":"1535","CENTER_NAME":"EARTH","RA_OF_ASC_NODE":"260.8341","ELEMENT_SET_NO":"999","PERIOD":"96.107","SITE":"AFWTR","TIME_SYSTEM":"UTC","EPHEMERIS_TYPE":"0","OBJECT_TYPE":"PAYLOAD","REF_FRAME":"TEME","OBJECT_NAME":"STARLINK-5072","NORAD_CAT_ID":"55758","TLE_LINE2":"2 55758  70.0007 260.8341 0003327 270.7728  89.3050 14.98330830 15356","SEMIMAJOR_AXIS":"6950.190","MEAN_MOTION_DDOT":"0.0000000000000","CLASSIFICATION_TYPE":"U","LAUNCH_DATE":"2023-03-03","ARG_OF_PERICENTER":"270.7728","COUNTRY_CODE":"US","TLE_LINE1":"1 55758U 23028T   23158.68860535 -.00000300  00000-0 -17357-4 0  9997"},{"REV_AT_EPOCH":"1561","PERIAPSIS":"412.419","MEAN_ANOMALY":"94.6694","INCLINATION":"69.9989","BSTAR":"0.00000917150000","EPOCH":"2023-06-07T09:13:58.604448","GP_ID":"233401139","ECCENTRICITY":"0.00039700","OBJECT_ID":"2023-028U","MEAN_ELEMENT_THEORY":"SGP4","DECAY_DATE":null,"MEAN_MOTION_DOT":"0.00000362","APOAPSIS":"417.813","RCS_SIZE":"LARGE","FILE":"3927174","MEAN_MOTION":"15.50551632","TLE_LINE1":"1 55759U 23028U   23158.38470607  .00000362  00000-0  91715-5 0  9999","COUNTRY_CODE":"US","ARG_OF_PERICENTER":"265.4039","LAUNCH_DATE":"2023-03-03","MEAN_MOTION_DDOT":"0.0000000000000","TLE_LINE2":"2 55759  69.9989 249.1551 0003970 265.4039  94.6694 15.50551632 15612","SEMIMAJOR_AXIS":"6793.251","CLASSIFICATION_TYPE":"U","NORAD_CAT_ID":"55759","OBJECT_NAME":"STARLINK-5081","REF_FRAME":"TEME","OBJECT_TYPE":"PAYLOAD","EPHEMERIS_TYPE":"0","TIME_SYSTEM":"UTC","SITE":"AFWTR","ELEMENT_SET_NO":"999","PERIOD":"92.870","RA_OF_ASC_NODE":"249.1551","CENTER_NAME":"EARTH"},{"ECCENTRICITY":"0.00030300","GP_ID":"233401889","EPOCH":"2023-06-07T08:13:07.488192","BSTAR":"-0.00002306200000","REV_AT_EPOCH":"1530","INCLINATION":"70.0001","PERIAPSIS":"569.951","MEAN_ANOMALY":"92.0702","MEAN_MOTION":"14.98330446","FILE":"3927174","RCS_SIZE":"LARGE","MEAN_MOTION_DOT":"-0.00000368","APOAPSIS":"574.162","DECAY_DATE":null,"MEAN_ELEMENT_THEORY":"SGP4","OBJECT_ID":"2023-028V","TIME_SYSTEM":"UTC","SITE":"AFWTR","OBJECT_TYPE":"PAYLOAD","EPHEMERIS_TYPE":"0","REF_FRAME":"TEME","NORAD_CAT_ID":"55760","OBJECT_NAME":"STARLINK-5532","ARG_OF_PERICENTER":"268.0110","LAUNCH_DATE":"2023-03-03","MEAN_MOTION_DDOT":"0.0000000000000","TLE_LINE2":"2 55760  70.0001 261.6283 0003030 268.0110  92.0702 14.98330446 15306","SEMIMAJOR_AXIS":"6950.192","CLASSIFICATION_TYPE":"U","COUNTRY_CODE":"US","TLE_LINE1":"1 55760U 23028V   23158.34244778 -.00000368  00000-0 -23062-4 0  9992","CENTER_NAME":"EARTH","PERIOD":"96.107","ELEMENT_SET_NO":"999","RA_OF_ASC_NODE":"261.6283"},{"OBJECT_ID":"2023-028W","MEAN_ELEMENT_THEORY":"SGP4","DECAY_DATE":null,"MEAN_MOTION_DOT":"-0.00917514","APOAPSIS":"384.158","RCS_SIZE":"LARGE","FILE":"3927436","MEAN_MOTION":"15.62068936","REV_AT_EPOCH":"130","PERIAPSIS":"379.210","MEAN_ANOMALY":"117.0371","INCLINATION":"69.9992","BSTAR":"-0.01148000000000","EPOCH":"2023-06-07T22:00:00.999936","GP_ID":"233434852","ECCENTRICITY":"0.00036600","ELEMENT_SET_NO":"999","PERIOD":"92.185","RA_OF_ASC_NODE":"244.9168","CENTER_NAME":"EARTH","TLE_LINE1":"1 55761U 23028W   23158.91667824 -.00917514  00000-0 -11480-1 0  9995","COUNTRY_CODE":"US","LAUNCH_DATE":"2023-03-03","ARG_OF_PERICENTER":"271.9026","SEMIMAJOR_AXIS":"6759.819","TLE_LINE2":"2 55761  69.9992 244.9168 0003660 271.9026 117.0371 15.62068936  1306","CLASSIFICATION_TYPE":"U","MEAN_MOTION_DDOT":"0.0000000000000","OBJECT_NAME":"STARLINK-5611","NORAD_CAT_ID":"55761","REF_FRAME":"TEME","EPHEMERIS_TYPE":"0","OBJECT_TYPE":"PAYLOAD","TIME_SYSTEM":"UTC","SITE":"AFWTR"},{"APOAPSIS":"384.148","MEAN_MOTION_DOT":"-0.00909248","MEAN_MOTION":"15.62068420","RCS_SIZE":"LARGE","FILE":"3927436","MEAN_ELEMENT_THEORY":"SGP4","OBJECT_ID":"2023-028X","DECAY_DATE":null,"EPOCH":"2023-06-07T22:00:00.999936","ECCENTRICITY":"0.00036440","GP_ID":"233435604","MEAN_ANOMALY":"120.0204","PERIAPSIS":"379.222","INCLINATION":"69.9993","REV_AT_EPOCH":"130","BSTAR":"-0.01136700000000","RA_OF_ASC_NODE":"244.9142","PERIOD":"92.185","ELEMENT_SET_NO":"999","CENTER_NAME":"EARTH","REF_FRAME":"TEME","SITE":"AFWTR","TIME_SYSTEM":"UTC","OBJECT_TYPE":"PAYLOAD","EPHEMERIS_TYPE":"0","COUNTRY_CODE":"US","TLE_LINE1":"1 55762U 23028X   23158.91667824 -.00909248  00000-0 -11367-1 0  9995","OBJECT_NAME":"STARLINK-5603","NORAD_CAT_ID":"55762","SEMIMAJOR_AXIS":"6759.820","TLE_LINE2":"2 55762  69.9993 244.9142 0003644 271.3600 120.0204 15.62068420  1301","MEAN_MOTION_DDOT":"0.0000000000000","CLASSIFICATION_TYPE":"U","LAUNCH_DATE":"2023-03-03","ARG_OF_PERICENTER":"271.3600"}];
